     2.100          NAVIGATION                              RINEX VERSION / TYPE
fic2rin                                 12/25/2009 01:08:40 PGM / RUN BY / DATE
                                                            END OF HEADER
 1 09 12 24 22  0  0.0 -.733654014766D-04 -.295585778076D-11  .000000000000D+00
     .510000000000D+02 -.266562500000D+02  .583988611184D-08  .293985144770D+01
    -.135041773319D-05  .381955399644D-02  .613182783127D-05  .515365615082D+04
     .424800000000D+06  .149011611938D-07  .251669834830D-01 -.558793544769D-08
     .963349688067D+00  .261468750000D+03  .949872875641D+00 -.807176479283D-08
     .147506144223D-09  .100000000000D+01  .156300000000D+04  .000000000000D+00
     .240000000000D+01  .630000000000D+02 -.190921127796D-07  .510000000000D+02
     .417606000000D+06  .400000000000D+01
 2 09 12 24 22  0  0.0  .207526609302D-03  .454747350886D-11  .000000000000D+00
     .350000000000D+02  .570625000000D+02  .513807116414D-08  .341054942856D+00
     .293739140034D-05  .924355932511D-02  .878609716892D-05  .515375453186D+04
     .424800000000D+06  .158324837685D-06  .211063018054D+01 -.279396772385D-07
     .940144792256D+00  .199031250000D+03  .293049402240D+01 -.840606443204D-08
     .101075638777D-09  .100000000000D+01  .156300000000D+04  .000000000000D+00
     .240000000000D+01  .000000000000D+00 -.172294676304D-07  .350000000000D+02
     .417606000000D+06  .400000000000D+01
 3 09 12 24 22  0  0.0  .492461025715D-03  .511590769747D-11  .000000000000D+00
     .460000000000D+02 -.357500000000D+02  .541522556588D-08  .123781523174D+00
    -.181421637535D-05  .127463043900D-01  .827386975288D-05  .515367876053D+04
     .424800000000D+06 -.108033418655D-06  .959942374847D+00  .201165676117D-06
     .926637251235D+00  .204062500000D+03  .975168152651D+00 -.862750222724D-08
    -.113219001740D-09  .100000000000D+01  .156300000000D+04  .000000000000D+00
     .340000000000D+01  .000000000000D+00 -.419095158577D-08  .460000000000D+02
     .417606000000D+06  .400000000000D+01
 4 09 12 24 22  0  0.0 -.423284247518D-03 -.187583282241D-10  .000000000000D+00
     .810000000000D+02  .668750000000D+02  .499056501992D-08 -.303534606443D+01
     .331178307533D-05  .910714000929D-02  .892579555511D-05  .515360362816D+04
     .424800000000D+06 -.484287738800D-07  .212871854524D+01 -.104308128357D-06
     .939325321139D+00  .197625000000D+03  .578544826851D+00 -.812712424163D-08
     .119290683221D-09  .100000000000D+01  .156300000000D+04  .000000000000D+00
     .240000000000D+01  .000000000000D+00 -.605359673500D-08  .810000000000D+02
     .417606000000D+06  .400000000000D+01
 5 09 12 24 22  0  0.0 -.245142728090D-04  .477484718431D-11  .000000000000D+00
     .120000000000D+02  .349687500000D+02  .484341603343D-08  .175328745450D+01
     .196136534214D-05  .178631197196D-02  .513717532158D-05  .515362021446D+04
     .424800000000D+06 -.186264514923D-07 -.311413555817D+01  .484287738800D-07
     .960647539397D+00  .281156250000D+03  .283445578532D+00 -.833820446254D-08
    -.850035407387D-10  .100000000000D+01  .156300000000D+04  .000000000000D+00
     .240000000000D+01  .000000000000D+00 -.884756445885D-08  .120000000000D+02
     .417606000000D+06  .400000000000D+01
 6 09 12 24 22  0  0.0  .263071618974D-03 -.909494701773D-12  .000000000000D+00
     .780000000000D+02 -.379062500000D+02  .513771400641D-08  .241124837362D+01
    -.198930501938D-05  .582155282609D-02  .841170549393D-05  .515366565704D+04
     .424800000000D+06  .614672899246D-07  .102929373849D+01  .372529029846D-08
     .933993852250D+00  .201875000000D+03 -.118214816620D+01 -.820427031222D-08
    -.145006040084D-09  .100000000000D+01  .156300000000D+04  .000000000000D+00
     .240000000000D+01  .000000000000D+00 -.512227416039D-08  .780000000000D+02
     .417606000000D+06  .400000000000D+01
 7 09 12 24 22  0  0.0  .544404610991D-05 -.568434188608D-12  .000000000000D+00
     .112000000000D+03 -.218750000000D+01  .422124726046D-08 -.138267330534D+01
    -.206753611565D-06  .323736818973D-02  .764615833759D-05  .515372848320D+04
     .424800000000D+06 -.100582838058D-06 -.101437006351D+01 -.521540641785D-07
     .969888253087D+00  .238375000000D+03  .305957379306D+01 -.792104422900D-08
     .207151485834D-09  .100000000000D+01  .156300000000D+04  .000000000000D+00
     .240000000000D+01  .000000000000D+00 -.107102096081D-07  .112000000000D+03
     .417606000000D+06  .400000000000D+01
 8 09 12 24 22  0  0.0  .130571424961D-05  .454747350886D-12  .000000000000D+00
     .670000000000D+02 -.128125000000D+01  .376265672976D-08 -.197757723117D+01
    -.255182385445D-06  .109933364438D-01  .820495188236D-05  .515373688126D+04
     .424800000000D+06 -.949949026108D-07 -.949631303978D+00 -.968575477600D-07
     .991198089208D+00  .238812500000D+03  .307482033260D+01 -.770889253489D-08
     .333942481473D-09  .100000000000D+01  .156300000000D+04  .000000000000D+00
     .240000000000D+01  .000000000000D+00 -.372529029846D-08  .670000000000D+02
     .417606000000D+06  .400000000000D+01
 9 09 12 24 22  0  0.0  .959592871368D-04  .227373675443D-11  .000000000000D+00
     .770000000000D+02 -.562500000000D+01  .391409160905D-08 -.216770521403D+01
    -.152736902237D-06  .206335508265D-01  .829808413982D-05  .515361896896D+04
     .424800000000D+06  .342726707458D-06 -.104687594816D+01  .130385160446D-06
     .978703185933D+00  .224718750000D+03  .152380422063D+01 -.751781314709D-08
     .247510309798D-09  .100000000000D+01  .156300000000D+04  .000000000000D+00
     .340000000000D+01  .000000000000D+00 -.558793544769D-08  .770000000000D+02
     .417606000000D+06  .400000000000D+01
10 09 12 24 22  0  0.0 -.310996547341D-04 -.795807864051D-12  .000000000000D+00
     .830000000000D+02  .311875000000D+02  .497270713321D-08  .162485540106D+01
     .172480940819D-05  .893574126530D-02  .532716512680D-05  .515342280197D+04
     .424800000000D+06 -.188127160072D-06 -.308751791293D+01  .102445483208D-06
     .955709766634D+00  .277093750000D+03  .632152646484D+00 -.845499504162D-08
    -.138577200868D-09  .100000000000D+01  .156300000000D+04  .000000000000D+00
     .240000000000D+01  .000000000000D+00 -.279396772385D-08  .830000000000D+02
     .417606000000D+06  .400000000000D+01
11 09 12 24 22  0  0.0 -.360133126378D-04 -.193267624127D-11  .000000000000D+00
     .300000000000D+01  .407500000000D+02  .615882796848D-08 -.148167076531D+01
     .206567347050D-05  .103842196986D-01  .825524330139D-05  .515371470451D+04
     .424800000000D+06  .230967998505D-06  .189979015231D+01 -.670552253723D-07
     .888426304990D+00  .177843750000D+03  .777648126657D+00 -.871357724118D-08
     .850035407387D-10  .100000000000D+01  .156300000000D+04  .000000000000D+00
     .240000000000D+01  .000000000000D+00 -.116415321827D-07  .300000000000D+01
     .417606000000D+06  .400000000000D+01
12 09 12 24 22  0  0.0 -.172124709934D-03  .511590769747D-11  .000000000000D+00
     .400000000000D+02 -.283750000000D+02  .448875840338D-08 -.125942001848D+01
    -.137090682983D-05  .325586705003D-02  .625662505627D-05  .515377968216D+04
     .424800000000D+06 -.838190317154D-07  .386389990008D-01  .745058059692D-08
     .969441142898D+00  .263687500000D+03 -.561716795336D+00 -.807676500111D-08
     .152506352502D-09  .100000000000D+01  .156300000000D+04  .000000000000D+00
     .240000000000D+01  .000000000000D+00 -.121071934700D-07  .400000000000D+02
     .417606000000D+06  .400000000000D+01
13 09 12 24 22  0  0.0  .306613277644D-03  .000000000000D+00  .000000000000D+00
     .900000000000D+02 -.165937500000D+02  .371622622431D-08  .105545560428D+01
    -.103376805782D-05  .396663672291D-02  .775046646595D-05  .515361268997D+04
     .424800000000D+06 -.800937414169D-07 -.199948339220D+01 -.428408384323D-07
     .993833264025D+00  .247125000000D+03  .164448067385D+01 -.776425198369D-08
    -.186079179516D-09  .100000000000D+01  .156300000000D+04  .000000000000D+00
     .240000000000D+01  .000000000000D+00 -.111758708954D-07  .900000000000D+02
     .417606000000D+06  .400000000000D+01
14 09 12 24 22  0  0.0 -.815652310848D-05  .454747350886D-11  .000000000000D+00
     .750000000000D+02 -.283437500000D+02  .394266422779D-08  .926872760565D+00
    -.146031379700D-05  .507335620932D-02  .737421214581D-05  .515368903732D+04
     .424800000000D+06 -.614672899246D-07 -.202031794087D+01  .000000000000D+00
     .987207911389D+00  .253468750000D+03 -.209753039429D+01 -.792533012181D-08
    -.250010413937D-09  .100000000000D+01  .156300000000D+04  .000000000000D+00
     .240000000000D+01  .000000000000D+00 -.884756445885D-08  .750000000000D+02
     .417606000000D+06  .400000000000D+01
15 09 12 24 22  0  0.0 -.316708814353D-03  .159161572810D-11  .000000000000D+00
     .105000000000D+03 -.349687500000D+02  .468590947265D-08  .109504012527D+01
    -.178068876266D-05  .220548431389D-02  .681169331074D-05  .515370650864D+04
     .424800000000D+06  .502914190292D-07 -.207948607659D+01 -.745058059692D-08
     .955019360001D+00  .240468750000D+03 -.411490219076D+00 -.824998650220D-08
    -.295369446180D-09  .100000000000D+01  .156300000000D+04  .000000000000D+00
     .240000000000D+01  .000000000000D+00 -.977888703346D-08  .105000000000D+03
     .417606000000D+06  .400000000000D+01
17 09 12 24 22  0  0.0  .114950351417D-03  .341060513165D-11  .000000000000D+00
     .380000000000D+02 -.201250000000D+02  .457197615544D-08  .142765852929D+01
    -.110454857349D-05  .491774163675D-02  .929273664951D-05  .515376789093D+04
     .424800000000D+06 -.204890966415D-07  .109844188526D+01  .102445483208D-06
     .959745167639D+00  .197718750000D+03 -.263773171403D+01 -.804033491222D-08
    -.160720980388D-09  .100000000000D+01  .156300000000D+04  .000000000000D+00
     .240000000000D+01  .000000000000D+00 -.102445483208D-07  .380000000000D+02
     .417606000000D+06  .400000000000D+01
